GLOBALSTAR M057         
1 25943U 99058A   26002.64080608 -.00000110  00000+0 -15837-3 0  9996
2 25943  51.9970 142.1500 0003222  76.0039 284.1169 12.24832505191377
GLOBALSTAR M059         
1 25944U 99058B   26003.07969324 -.00000044  00000+0  52218-3 0  9995
2 25944  52.0040  26.3932 0000224  47.9518 345.6442 11.99988960598048
GLOBALSTAR M056         
1 25945U 99058C   26003.02730137  .00000013  00000+0  11723-2 0  9999
2 25945  51.9990  23.3728 0000939 210.5816 172.2698 12.04782129186713
GLOBALSTAR M031         
1 25946U 99058D   25351.65166691 -.00000043  00000+0  48267-3 0  9990
2 25946  51.9983 309.4344 0000939 181.2254 351.7896 12.16044933186865
GLOBALSTAR M039         
1 25961U 99062A   26003.01479794 -.00000086  00000+0  98118-4 0  9996
2 25961  51.9865  20.0722 0002798  73.5007 286.6167 12.62340323205458
GLOBALSTAR M034         
1 25962U 99062B   26003.06256167 -.00000039  00000+0  66965-3 0  9991
2 25962  51.9845 211.8248 0015373  60.7546 104.9707 11.79455267161970
GLOBALSTAR M029         
1 25963U 99062C   26003.12901154  .00000008  00000+0  11693-2 0  9994
2 25963  51.9809 274.1266 0002587 129.6057  17.9957 11.99906946193127
GLOBALSTAR M061         
1 25964U 99062D   26003.06237807 -.00000032  00000+0  79360-3 0  9999
2 25964  51.9814  38.5122 0005644 341.4940  39.5023 11.76778112144711
